[{"OBJECT_NAME":"JY1SAT (JO-97)","OBJECT_ID":"2018-099AX","EPOCH":"2026-03-09T16:28:19.890048","MEAN_MOTION":15.30302629,"ECCENTRICITY":0.00047232,"INCLINATION":97.4249,"RA_OF_ASC_NODE":131.3625,"ARG_OF_PERICENTER":256.6795,"MEAN_ANOMALY":103.3919,"EPHEMERIS_TYPE":0,"CLASSIFICATION_TYPE":"U","NORAD_CAT_ID":43803,"ELEMENT_SET_NO":999,"REV_AT_EPOCH":39839,"BSTAR":0.00060804308,"MEAN_MOTION_DOT":0.00017774,"MEAN_MOTION_DDOT":0},{"OBJECT_NAME":"STARLINK-32199","OBJECT_ID":"2024-133V","EPOCH":"2026-03-09T21:36:04.023648","MEAN_MOTION":15.30188919,"ECCENTRICITY":0.00012337,"INCLINATION":53.1604,"RA_OF_ASC_NODE":296.0019,"ARG_OF_PERICENTER":94.7268,"MEAN_ANOMALY":265.3873,"EPHEMERIS_TYPE":0,"CLASSIFICATION_TYPE":"U","NORAD_CAT_ID":60320,"ELEMENT_SET_NO":999,"REV_AT_EPOCH":9167,"BSTAR":4.2697301e-5,"MEAN_MOTION_DOT":9.05e-6,"MEAN_MOTION_DDOT":0}]
